{"type": "FeatureCollection", "features": [ {"type": "Feature", "properties": {"norad_id": 34750, "name": "COSMOS 2251 DEB", "group": "cosmos-2251-debris", "lat": -58.04703226595423, "lon": 20.301693284829195, "alt_km": 708.9167193230405, "timestamp": "2025-12-27T18:38:03.872958+00:00", "meta": {"OBJECT_NAME": "COSMOS 2251 DEB", "OBJECT_ID": "1993-036ZU", "EPOCH": "2025-12-26T22:22:40.831392", "MEAN_MOTION": 14.61470505, "ECCENTRICITY": 0.0038217, "INCLINATION": 74.1071, "RA_OF_ASC_NODE": 174.7283, "ARG_OF_PERICENTER": 122.8481, "MEAN_ANOMALY": 359.8296, "EPHEMERIS_TYPE": 0, "CLASSIFICATION_TYPE": "U", "NORAD_CAT_ID": 34750, "ELEMENT_SET_NO": 999, "REV_AT_EPOCH": 88438, "BSTAR": 0.0014743, "MEAN_MOTION_DOT": 7.361e-05, "MEAN_MOTION_DDOT": 0}, "tle": {"line1": "1 34750U 93036ZU  25360.93241703  .00007361  00000+0  14743-2 0  9992", "line2": "2 34750  74.1071 174.7283 0038217 122.8481 359.8296 14.61470505884386"}}, "geometry": {"type": "Point", "coordinates": [20.301693284829195, -58.04703226595423]}}, {"type": "Feature", "properties": {"norad_id": 34752, "name": "COSMOS 2251 DEB", "group": "cosmos-2251-debris", "lat": -42.62749871274414, "lon": -45.30612286596137, "alt_km": 596.9166089778555, "timestamp": "2025-12-27T18:38:03.872968+00:00", "meta": {"OBJECT_NAME": "COSMOS 2251 DEB", "OBJECT_ID": "1993-036ZW", "EPOCH": "2025-12-27T07:37:54.456096", "MEAN_MOTION": 15.0027592, "ECCENTRICITY": 0.0047567, "INCLINATION": 74.0132, "RA_OF_ASC_NODE": 330.9274, "ARG_OF_PERICENTER": 94.6976, "MEAN_ANOMALY": 265.9646, "EPHEMERIS_TYPE": 0, "CLASSIFICATION_TYPE": "U", "NORAD_CAT_ID": 34752, "ELEMENT_SET_NO": 999, "REV_AT_EPOCH": 90068, "BSTAR": 0.0011458, "MEAN_MOTION_DOT": 0.00014692, "MEAN_MOTION_DDOT": 0}, "tle": {"line1": "1 34752U 93036ZW  25361.31799139  .00014692  00000+0  11458-2 0  9993", "line2": "2 34752  74.0132 330.9274 0047567  94.6976 265.9646 15.00275920900680"}}, "geometry": {"type": "Point", "coordinates": [-45.30612286596137, -42.62749871274414]}}, {"type": "Feature", "properties": {"norad_id": 34754, "name": "COSMOS 2251 DEB", "group": "cosmos-2251-debris", "lat": -51.199226003461185, "lon": 178.92219729855432, "alt_km": 742.1294527343434, "timestamp": "2025-12-27T18:38:03.872979+00:00", "meta": {"OBJECT_NAME": "COSMOS 2251 DEB", "OBJECT_ID": "1993-036ZY", "EPOCH": "2025-12-27T01:17:47.768640", "MEAN_MOTION": 14.40501325, "ECCENTRICITY": 0.00300619, "INCLINATION": 74.0288, "RA_OF_ASC_NODE": 201.1242, "ARG_OF_PERICENTER": 314.5632, "MEAN_ANOMALY": 206.633, "EPHEMERIS_TYPE": 0, "CLASSIFICATION_TYPE": "U", "NORAD_CAT_ID": 34754, "ELEMENT_SET_NO": 999, "REV_AT_EPOCH": 88339, "BSTAR": 0.00023241228, "MEAN_MOTION_DOT": 7.17e-06, "MEAN_MOTION_DDOT": 0}, "tle": {"line1": "1 34754U 93036ZY  25361.05402510  .00000717  00000+0  23241-3 0  9997", "line2": "2 34754  74.0288 201.1242 0030061 314.5632 206.6330 14.40501325883396"}}, "geometry": {"type": "Point", "coordinates": [178.92219729855432, -51.199226003461185]}}, {"type": "Feature", "properties": {"norad_id": 34755, "name": "COSMOS 2251 DEB", "group": "cosmos-2251-debris", "lat": -45.12948714679758, "lon": 102.69266460267328, "alt_km": 896.4803193032758, "timestamp": "2025-12-27T18:38:03.872990+00:00", "meta": {"OBJECT_NAME": "COSMOS 2251 DEB", "OBJECT_ID": "1993-036ZZ", "EPOCH": "2025-12-27T04:03:28.875744", "MEAN_MOTION": 13.50582602, "ECCENTRICITY": 0.04078114, "INCLINATION": 73.925, "RA_OF_ASC_NODE": 266.832, "ARG_OF_PERICENTER": 284.1121, "MEAN_ANOMALY": 235.2158, "EPHEMERIS_TYPE": 0, "CLASSIFICATION_TYPE": "U", "NORAD_CAT_ID": 34755, "ELEMENT_SET_NO": 999, "REV_AT_EPOCH": 82718, "BSTAR": 0.00075894635, "MEAN_MOTION_DOT": 7.94e-06, "MEAN_MOTION_DDOT": 0}, "tle": {"line1": "1 34755U 93036ZZ  25361.16908421  .00000794  00000+0  75895-3 0  9999", "line2": "2 34755  73.9250 266.8320 0407811 284.1121 235.2158 13.50582602827183"}}, "geometry": {"type": "Point", "coordinates": [102.69266460267328, -45.12948714679758]}}, {"type": "Feature", "properties": {"norad_id": 34756, "name": "COSMOS 2251 DEB", "group": "cosmos-2251-debris", "lat": -37.92799911918808, "lon": 66.72390058146031, "alt_km": 761.9517158708068, "timestamp": "2025-12-27T18:38:03.873000+00:00", "meta": {"OBJECT_NAME": "COSMOS 2251 DEB", "OBJECT_ID": "1993-036AAA", "EPOCH": "2025-12-27T11:47:35.563776", "MEAN_MOTION": 13.6728277, "ECCENTRICITY": 0.0346183, "INCLINATION": 74.0033, "RA_OF_ASC_NODE": 80.1094, "ARG_OF_PERICENTER": 312.7651, "MEAN_ANOMALY": 44.4809, "EPHEMERIS_TYPE": 0, "CLASSIFICATION_TYPE": "U", "NORAD_CAT_ID": 34756, "ELEMENT_SET_NO": 999, "REV_AT_EPOCH": 83623, "BSTAR": 0.0012852, "MEAN_MOTION_DOT": 1.61e-05, "MEAN_MOTION_DDOT": 0}, "tle": {"line1": "1 34756U 93036AAA 25361.49138384  .00001610  00000+0  12852-2 0  9990", "line2": "2 34756  74.0033  80.1094 0346183 312.7651  44.4809 13.67282770836230"}}, "geometry": {"type": "Point", "coordinates": [66.72390058146031, -37.92799911918808]}}, {"type": "Feature", "properties": {"norad_id": 34758, "name": "COSMOS 2251 DEB", "group": "cosmos-2251-debris", "lat": -63.01445656418529, "lon": -118.72382424727991, "alt_km": 1104.6742712840469, "timestamp": "2025-12-27T18:38:03.873011+00:00", "meta": {"OBJECT_NAME": "COSMOS 2251 DEB", "OBJECT_ID": "1993-036AAC", "EPOCH": "2025-12-27T04:49:01.915968", "MEAN_MOTION": 13.58126392, "ECCENTRICITY": 0.0382625, "INCLINATION": 74.107, "RA_OF_ASC_NODE": 276.2231, "ARG_OF_PERICENTER": 36.5762, "MEAN_ANOMALY": 326.0831, "EPHEMERIS_TYPE": 0, "CLASSIFICATION_TYPE": "U", "NORAD_CAT_ID": 34758, "ELEMENT_SET_NO": 999, "REV_AT_EPOCH": 83106, "BSTAR": 0.0019438, "MEAN_MOTION_DOT": 2.251e-05, "MEAN_MOTION_DDOT": 0}, "tle": {"line1": "1 34758U 93036AAC 25361.20071662  .00002251  00000+0  19438-2 0  9995", "line2": "2 34758  74.1070 276.2231 0382625  36.5762 326.0831 13.58126392831067"}}, "geometry": {"type": "Point", "coordinates": [-118.72382424727991, -63.01445656418529]}}, {"type": "Feature", "properties": {"norad_id": 34760, "name": "COSMOS 2251 DEB", "group": "cosmos-2251-debris", "lat": -73.97202589541979, "lon": -168.53929509683246, "alt_km": 790.7130392742401, "timestamp": "2025-12-27T18:38:03.873021+00:00", "meta": {"OBJECT_NAME": "COSMOS 2251 DEB", "OBJECT_ID": "1993-036AAE", "EPOCH": "2025-12-26T11:28:08.253120", "MEAN_MOTION": 14.1960414, "ECCENTRICITY": 0.009732, "INCLINATION": 74.0632, "RA_OF_ASC_NODE": 277.842, "ARG_OF_PERICENTER": 326.9633, "MEAN_ANOMALY": 151.7947, "EPHEMERIS_TYPE": 0, "CLASSIFICATION_TYPE": "U", "NORAD_CAT_ID": 34760, "ELEMENT_SET_NO": 999, "REV_AT_EPOCH": 86883, "BSTAR": 0.00062411, "MEAN_MOTION_DOT": 1.356e-05, "MEAN_MOTION_DDOT": 0}, "tle": {"line1": "1 34760U 93036AAE 25360.47787330  .00001356  00000+0  62411-3 0  9997", "line2": "2 34760  74.0632 277.8420 0097320 326.9633 151.7947 14.19604140868834"}}, "geometry": {"type": "Point", "coordinates": [-168.53929509683246, -73.97202589541979]}}, {"type": "Feature", "properties": {"norad_id": 34761, "name": "COSMOS 2251 DEB", "group": "cosmos-2251-debris", "lat": 62.36294395552397, "lon": 121.9215665680685, "alt_km": 766.283978837645, "timestamp": "2025-12-27T18:38:03.873032+00:00", "meta": {"OBJECT_NAME": "COSMOS 2251 DEB", "OBJECT_ID": "1993-036AAF", "EPOCH": "2025-12-27T04:45:27.396864", "MEAN_MOTION": 14.38105153, "ECCENTRICITY": 0.00371853, "INCLINATION": 74.0287, "RA_OF_ASC_NODE": 336.1447, "ARG_OF_PERICENTER": 6.3825, "MEAN_ANOMALY": 353.7795, "EPHEMERIS_TYPE": 0, "CLASSIFICATION_TYPE": "U", "NORAD_CAT_ID": 34761, "ELEMENT_SET_NO": 999, "REV_AT_EPOCH": 87857, "BSTAR": 0.00080983282, "MEAN_MOTION_DOT": 2.449e-05, "MEAN_MOTION_DDOT": 0}, "tle": {"line1": "1 34761U 93036AAF 25361.19823376  .00002449  00000+0  80983-3 0  9997", "line2": "2 34761  74.0287 336.1447 0037185   6.3825 353.7795 14.38105153878572"}}, "geometry": {"type": "Point", "coordinates": [121.9215665680685, 62.36294395552397]}}, {"type": "Feature", "properties": {"norad_id": 34784, "name": "COSMOS 2251 DEB", "group": "cosmos-2251-debris", "lat": 44.26770709773361, "lon": 99.34092981040149, "alt_km": 657.1342430262976, "timestamp": "2025-12-27T18:38:03.873042+00:00", "meta": {"OBJECT_NAME": "COSMOS 2251 DEB", "OBJECT_ID": "1993-036AAM", "EPOCH": "2025-12-26T05:52:17.900832", "MEAN_MOTION": 14.60839983, "ECCENTRICITY": 0.0049103, "INCLINATION": 74.0077, "RA_OF_ASC_NODE": 298.5051, "ARG_OF_PERICENTER": 103.7988, "MEAN_ANOMALY": 256.8649, "EPHEMERIS_TYPE": 0, "CLASSIFICATION_TYPE": "U", "NORAD_CAT_ID": 34784, "ELEMENT_SET_NO": 999, "REV_AT_EPOCH": 88732, "BSTAR": 0.00052479, "MEAN_MOTION_DOT": 2.579e-05, "MEAN_MOTION_DDOT": 0}, "tle": {"line1": "1 34784U 93036AAM 25360.24465163  .00002579  00000+0  52479-3 0  9996", "line2": "2 34784  74.0077 298.5051 0049103 103.7988 256.8649 14.60839983887325"}}, "geometry": {"type": "Point", "coordinates": [99.34092981040149, 44.26770709773361]}}, {"type": "Feature", "properties": {"norad_id": 34790, "name": "COSMOS 2251 DEB", "group": "cosmos-2251-debris", "lat": 69.09660944582058, "lon": -11.841565025270695, "alt_km": 873.9115021536236, "timestamp": "2025-12-27T18:38:03.873052+00:00", "meta": {"OBJECT_NAME": "COSMOS 2251 DEB", "OBJECT_ID": "1993-036AAT", "EPOCH": "2025-12-25T15:51:16.162272", "MEAN_MOTION": 14.24671167, "ECCENTRICITY": 0.0100473, "INCLINATION": 74.0524, "RA_OF_ASC_NODE": 220.442, "ARG_OF_PERICENTER": 279.3563, "MEAN_ANOMALY": 137.0748, "EPHEMERIS_TYPE": 0, "CLASSIFICATION_TYPE": "U", "NORAD_CAT_ID": 34790, "ELEMENT_SET_NO": 999, "REV_AT_EPOCH": 86757, "BSTAR": 0.00054898, "MEAN_MOTION_DOT": 1.32e-05, "MEAN_MOTION_DDOT": 0}, "tle": {"line1": "1 34790U 93036AAT 25359.66060373  .00001320  00000+0  54898-3 0  9991", "line2": "2 34790  74.0524 220.4420 0100473 279.3563 137.0748 14.24671167867573"}}, "geometry": {"type": "Point", "coordinates": [-11.841565025270695, 69.09660944582058]}}]}